IRIDIUM 63              
1 25286U 98021B   25222.51025818  .00000370  00000+0  11941-3 0  9994
2 25286  86.3934  59.3282 0002330  90.1260 270.0204 14.36577666431917
IRIDIUM 69              
1 25319U 98026A   25222.56444773  .00000429  00000+0  12728-3 0  9995
2 25319  86.3924  72.4329 0002374 150.4934 209.6400 14.41010257431131
IRIDIUM 71              
1 25320U 98026B   25222.56423623  .00000368  00000+0  10786-3 0  9992
2 25320  86.3923  67.1133 0000093 140.9659 219.1547 14.41193446431679
IRIDIUM 73              
1 25344U 98032C   25222.51439136  .00000573  00000+0  13763-3 0  9992
2 25344  86.4415  23.7311 0002460 106.8845 253.2631 14.51764665438742
IRIDIUM 82              
1 25467U 98051A   25221.61000939  .00035002  00000+0  93173-3 0  9992
2 25467  86.3619  83.4215 0083896  93.3596 267.7257 15.34452269432142
